{
  "type": "FeatureCollection",
  "features": [
    {
      "type": "Feature",
      "properties": {
        "norad_id": 31816,
        "name": "FENGYUN 1C DEB",
        "group": "fengyun-1c-debris",
        "lat": 65.78079125006037,
        "lon": -68.54866190603144,
        "alt_km": 876.4203991302902,
        "timestamp": "2025-12-02T07:10:09.399609+00:00",
        "meta_object_name": "FENGYUN 1C DEB",
        "meta_object_id": "1999-025CHE",
        "meta_epoch": "2025-11-23T07:26:54.652128",
        "meta_mean_motion": 13.94096492,
        "meta_eccentricity": 0.01210461,
        "meta_inclination": 98.9829,
        "meta_ra_of_asc_node": 82.1237,
        "meta_arg_of_pericenter": 207.0018,
        "meta_mean_anomaly": 180.5984,
        "meta_ephemeris_type": 0,
        "meta_classification_type": "U",
        "meta_norad_cat_id": 31816,
        "meta_element_set_no": 999,
        "meta_rev_at_epoch": 93423,
        "meta_bstar": 0.0012545957,
        "meta_mean_motion_dot": 1.723e-05,
        "meta_mean_motion_ddot": 0,
        "tle_line1": "1 31816U 99025CHE 25327.31035477  .00001723  00000+0  12546-2 0  9995",
        "tle_line2": "2 31816  98.9829  82.1237 0121046 207.0018 180.5984 13.94096492934234"
      },
      "geometry": {
        "type": "Point",
        "coordinates": [
          -68.54866190603144,
          65.78079125006037
        ]
      }
    },
    {
      "type": "Feature",
      "properties": {
        "norad_id": 31817,
        "name": "FENGYUN 1C DEB",
        "group": "fengyun-1c-debris",
        "lat": -2.6976783431491484,
        "lon": 151.35245178510476,
        "alt_km": 667.6375078642941,
        "timestamp": "2025-12-02T07:10:09.399619+00:00",
        "meta_object_name": "FENGYUN 1C DEB",
        "meta_object_id": "1999-025CHF",
        "meta_epoch": "2025-12-01T18:52:26.237856",
        "meta_mean_motion": 14.65425991,
        "meta_eccentricity": 0.006282,
        "meta_inclination": 98.9193,
        "meta_ra_of_asc_node": 331.2209,
        "meta_arg_of_pericenter": 108.6958,
        "meta_mean_anomaly": 252.1075,
        "meta_ephemeris_type": 0,
        "meta_classification_type": "U",
        "meta_norad_cat_id": 31817,
        "meta_element_set_no": 999,
        "meta_rev_at_epoch": 71245,
        "meta_bstar": 0.0012071,
        "meta_mean_motion_dot": 6.669e-05,
        "meta_mean_motion_ddot": 0,
        "tle_line1": "1 31817U 99025CHF 25335.78641479  .00006669  00000+0  12071-2 0  9998",
        "tle_line2": "2 31817  98.9193 331.2209 0062820 108.6958 252.1075 14.65425991712453"
      },
      "geometry": {
        "type": "Point",
        "coordinates": [
          151.35245178510476,
          -2.6976783431491484
        ]
      }
    },
    {
      "type": "Feature",
      "properties": {
        "norad_id": 31819,
        "name": "FENGYUN 1C DEB",
        "group": "fengyun-1c-debris",
        "lat": -4.532856925459676,
        "lon": -31.442520591166392,
        "alt_km": 732.1549310308319,
        "timestamp": "2025-12-02T07:10:09.399632+00:00",
        "meta_object_name": "FENGYUN 1C DEB",
        "meta_object_id": "1999-025CHH",
        "meta_epoch": "2025-12-01T19:26:11.467680",
        "meta_mean_motion": 14.30134028,
        "meta_eccentricity": 0.0087568,
        "meta_inclination": 98.4736,
        "meta_ra_of_asc_node": 327.4043,
        "meta_arg_of_pericenter": 352.8381,
        "meta_mean_anomaly": 7.1544,
        "meta_ephemeris_type": 0,
        "meta_classification_type": "U",
        "meta_norad_cat_id": 31819,
        "meta_element_set_no": 999,
        "meta_rev_at_epoch": 96537,
        "meta_bstar": 0.00045098,
        "meta_mean_motion_dot": 1.173e-05,
        "meta_mean_motion_ddot": 0,
        "tle_line1": "1 31819U 99025CHH 25335.80985495  .00001173  00000+0  45098-3 0  9993",
        "tle_line2": "2 31819  98.4736 327.4043 0087568 352.8381   7.1544 14.30134028965375"
      },
      "geometry": {
        "type": "Point",
        "coordinates": [
          -31.442520591166392,
          -4.532856925459676
        ]
      }
    },
    {
      "type": "Feature",
      "properties": {
        "norad_id": 31820,
        "name": "FENGYUN 1C DEB",
        "group": "fengyun-1c-debris",
        "lat": 71.37791816416872,
        "lon": -6.2752879304569715,
        "alt_km": 532.8423330280257,
        "timestamp": "2025-12-02T07:10:09.399643+00:00",
        "meta_object_name": "FENGYUN 1C DEB",
        "meta_object_id": "1999-025CHJ",
        "meta_epoch": "2025-12-01T06:33:38.375712",
        "meta_mean_motion": 14.9180181,
        "meta_eccentricity": 0.0151228,
        "meta_inclination": 98.9594,
        "meta_ra_of_asc_node": 144.6429,
        "meta_arg_of_pericenter": 48.747,
        "meta_mean_anomaly": 312.6659,
        "meta_ephemeris_type": 0,
        "meta_classification_type": "U",
        "meta_norad_cat_id": 31820,
        "meta_element_set_no": 999,
        "meta_rev_at_epoch": 98085,
        "meta_bstar": 0.0011279,
        "meta_mean_motion_dot": 0.00014134,
        "meta_mean_motion_ddot": 0,
        "tle_line1": "1 31820U 99025CHJ 25335.27336083  .00014134  00000+0  11279-2 0  9993",
        "tle_line2": "2 31820  98.9594 144.6429 0151228  48.7470 312.6659 14.91801810980854"
      },
      "geometry": {
        "type": "Point",
        "coordinates": [
          -6.2752879304569715,
          71.37791816416872
        ]
      }
    },
    {
      "type": "Feature",
      "properties": {
        "norad_id": 31821,
        "name": "FENGYUN 1C DEB",
        "group": "fengyun-1c-debris",
        "lat": -26.815554473881967,
        "lon": 37.555112101635366,
        "alt_km": 909.4977281720212,
        "timestamp": "2025-12-02T07:10:09.399653+00:00",
        "meta_object_name": "FENGYUN 1C DEB",
        "meta_object_id": "1999-025CHK",
        "meta_epoch": "2025-12-01T03:33:54.317376",
        "meta_mean_motion": 14.41210836,
        "meta_eccentricity": 0.02221223,
        "meta_inclination": 98.1559,
        "meta_ra_of_asc_node": 220.6134,
        "meta_arg_of_pericenter": 49.4117,
        "meta_mean_anomaly": 312.617,
        "meta_ephemeris_type": 0,
        "meta_classification_type": "U",
        "meta_norad_cat_id": 31821,
        "meta_element_set_no": 999,
        "meta_rev_at_epoch": 93494,
        "meta_bstar": 0.0050519142,
        "meta_mean_motion_dot": 0.00021904,
        "meta_mean_motion_ddot": 0,
        "tle_line1": "1 31821U 99025CHK 25335.14854534  .00021904  00000+0  50519-2 0  9999",
        "tle_line2": "2 31821  98.1559 220.6134 0222122  49.4117 312.6170 14.41210836934948"
      },
      "geometry": {
        "type": "Point",
        "coordinates": [
          37.555112101635366,
          -26.815554473881967
        ]
      }
    },
    {
      "type": "Feature",
      "properties": {
        "norad_id": 31823,
        "name": "FENGYUN 1C DEB",
        "group": "fengyun-1c-debris",
        "lat": -12.269629966814852,
        "lon": -121.20591106440624,
        "alt_km": 666.3403619770434,
        "timestamp": "2025-12-02T07:10:09.399665+00:00",
        "meta_object_name": "FENGYUN 1C DEB",
        "meta_object_id": "1999-025CHM",
        "meta_epoch": "2025-12-01T12:15:55.737792",
        "meta_mean_motion": 14.6543185,
        "meta_eccentricity": 0.00370005,
        "meta_inclination": 99.5129,
        "meta_ra_of_asc_node": 59.9736,
        "meta_arg_of_pericenter": 253.2151,
        "meta_mean_anomaly": 106.4987,
        "meta_ephemeris_type": 0,
        "meta_classification_type": "U",
        "meta_norad_cat_id": 31823,
        "meta_element_set_no": 999,
        "meta_rev_at_epoch": 96553,
        "meta_bstar": 0.0015719052,
        "meta_mean_motion_dot": 8.536e-05,
        "meta_mean_motion_ddot": 0,
        "tle_line1": "1 31823U 99025CHM 25335.51106178  .00008536  00000+0  15719-2 0  9995",
        "tle_line2": "2 31823  99.5129  59.9736 0037000 253.2151 106.4987 14.65431850965532"
      },
      "geometry": {
        "type": "Point",
        "coordinates": [
          -121.20591106440624,
          -12.269629966814852
        ]
      }
    },
    {
      "type": "Feature",
      "properties": {
        "norad_id": 31825,
        "name": "FENGYUN 1C DEB",
        "group": "fengyun-1c-debris",
        "lat": 62.495060169801015,
        "lon": 173.0499857439459,
        "alt_km": 848.1594773379147,
        "timestamp": "2025-12-02T07:10:09.399675+00:00",
        "meta_object_name": "FENGYUN 1C DEB",
        "meta_object_id": "1999-025CHP",
        "meta_epoch": "2025-12-01T05:17:48.415200",
        "meta_mean_motion": 14.21580194,
        "meta_eccentricity": 0.0166342,
        "meta_inclination": 98.5905,
        "meta_ra_of_asc_node": 335.1232,
        "meta_arg_of_pericenter": 11.7601,
        "meta_mean_anomaly": 348.7388,
        "meta_ephemeris_type": 0,
        "meta_classification_type": "U",
        "meta_norad_cat_id": 31825,
        "meta_element_set_no": 999,
        "meta_rev_at_epoch": 95458,
        "meta_bstar": 0.00084997,
        "meta_mean_motion_dot": 2.1e-05,
        "meta_mean_motion_ddot": 0,
        "tle_line1": "1 31825U 99025CHP 25335.22069925  .00002100  00000+0  84997-3 0  9999",
        "tle_line2": "2 31825  98.5905 335.1232 0166342  11.7601 348.7388 14.21580194954581"
      },
      "geometry": {
        "type": "Point",
        "coordinates": [
          173.0499857439459,
          62.495060169801015
        ]
      }
    }
  ]
}